NORAD_CAT_ID,OBJECT_NAME,OBJECT_TYPE,EPOCH,MEAN_MOTION,ECCENTRICITY,INCLINATION,RA_OF_ASC_NODE,ARG_OF_PERICENTER,MEAN_ANOMALY,BSTAR,MEAN_MOTION_DOT,MEAN_MOTION_DDOT,TLE_LINE0,TLE_LINE1,TLE_LINE2,SEMIMAJOR_AXIS,PERIOD,APOGEE,PERIGEE,DECAYED
53165.0,STARLINK-4090,PAYLOAD,2024-03-16 13:03:01,15.08833493,0.0001386,53.2173,170.4479,98.5141,261.6008,-3.9386e-05,-9.15e-06,0.0,0 STARLINK-4090,1 53165U 22083AK  24076.54377253 -.00000915  00000-0 -39386-4 0  9990,2 53165  53.2173 170.4479 0001386  98.5141 261.6008 15.08833493 92829,6917.9,95.438,540.724,538.806,0.0
53165.0,STARLINK-4090,PAYLOAD,2024-03-17 11:18:25,15.08835311,0.0001385,53.2173,166.283,98.7684,261.3465,3.722e-05,3.04e-06,0.0,0 STARLINK-4090,1 53165U 22083AK  24077.47113134  .00000304  00000-0  37220-4 0  9994,2 53165  53.2173 166.2830 0001385  98.7684 261.3465 15.08835311 92337,6917.895,95.438,540.718,538.802,0.0
53165.0,STARLINK-4090,PAYLOAD,2024-03-18 09:33:49,15.08832489,0.000129,53.2168,162.1222,92.0086,268.1054,8.794e-05,1.112e-05,0.0,0 STARLINK-4090,1 53165U 22083AK  24078.39849444  .00001112  00000-0  87940-4 0  9998,2 53165  53.2168 162.1222 0001290  92.0086 268.1054 15.08832489 93107,6917.903,95.438,540.661,538.876,0.0
53165.0,STARLINK-4090,PAYLOAD,2024-03-18 15:55:22,15.08835614,0.0001312,53.2167,160.9304,92.7165,267.3977,8.5532e-05,1.073e-05,0.0,0 STARLINK-4090,1 53165U 22083AK  24078.66345342  .00001073  00000-0  85532-4 0  9997,2 53165  53.2167 160.9304 0001312  92.7165 267.3977 15.08835614 92515,6917.894,95.438,540.666,538.851,0.0
53165.0,STARLINK-4090,PAYLOAD,2024-03-19 10:59:59,15.08832701,0.0001348,53.2165,157.3632,100.7427,259.3717,0.0002495,3.684e-05,0.0,0 STARLINK-4090,1 53165U 22083AK  24079.45833064  .00003684  00000-0  24950-3 0  9994,2 53165  53.2165 157.3632 0001348 100.7427 259.3717 15.08832701 92637,6917.903,95.438,540.7,538.835,0.0
53165.0,STARLINK-4090,PAYLOAD,2024-03-19 12:35:22,15.08845991,0.0001495,53.217,157.0658,100.223,259.8931,0.00010743,1.422e-05,0.0,0 STARLINK-4090,1 53165U 22083AK  24079.52456683  .00001422  00000-0  10743-3 0  9993,2 53165  53.2170 157.0658 0001495 100.2230 259.8931 15.08845991 93277,6917.862,95.437,540.761,538.693,0.0
53165.0,STARLINK-4090,PAYLOAD,2024-03-20 10:50:47,15.08836772,0.0001495,53.2167,152.9006,118.4256,241.6887,2.4156e-05,9.6e-07,0.0,0 STARLINK-4090,1 53165U 22083AK  24080.45193489  .00000096  00000-0  24156-4 0  9999,2 53165  53.2167 152.9006 0001495 118.4256 241.6887 15.08836772 93415,6917.89,95.438,540.789,538.721,0.0
53165.0,STARLINK-4090,PAYLOAD,2024-03-20 12:26:10,15.0883638,0.0001364,53.2167,152.6035,112.8264,247.2873,1.3886e-05,-6.7e-07,0.0,0 STARLINK-4090,1 53165U 22083AK  24080.51817618 -.00000067  00000-0  13886-4 0  9990,2 53165  53.2167 152.6035 0001364 112.8264 247.2873 15.08836380 92798,6917.891,95.438,540.7,538.813,0.0
53165.0,STARLINK-4090,PAYLOAD,2024-03-20 21:58:28,15.08843085,0.0001425,53.2176,150.8205,97.2495,262.8659,3.0604e-05,1.99e-06,0.0,0 STARLINK-4090,1 53165U 22083AK  24080.91561286  .00000199  00000-0  30604-4 0  9993,2 53165  53.2176 150.8205 0001425  97.2495 262.8659 15.08843085 92859,6917.871,95.437,540.722,538.75,0.0
53165.0,STARLINK-4090,PAYLOAD,2024-03-21 10:41:32,15.08860226,0.0001733,53.2188,148.4426,81.5531,278.5657,5.7726e-05,6.31e-06,0.0,0 STARLINK-4090,1 53165U 22083AK  24081.44551950  .00000631  00000-0  57726-4 0  9994,2 53165  53.2188 148.4426 0001733  81.5531 278.5657 15.08860226 93566,6917.819,95.436,540.882,538.485,0.0
53165.0,STARLINK-4090,PAYLOAD,2024-03-21 13:52:19,15.08855382,0.0001537,53.2179,147.8502,76.5387,283.5776,-2.0545e-05,-6.15e-06,0.0,0 STARLINK-4090,1 53165U 22083AK  24081.57800369 -.00000615  00000-0 -20545-4 0  9992,2 53165  53.2179 147.8502 0001537  76.5387 283.5776 15.08855382 92956,6917.833,95.437,540.762,538.635,0.0
53165.0,STARLINK-4090,PAYLOAD,2024-03-22 04:10:48,15.08838305,0.0001549,53.2176,145.1758,74.0271,286.0892,0.00014515,2.023e-05,0.0,0 STARLINK-4090,1 53165U 22083AK  24082.17416905  .00002023  00000-0  14515-3 0  9990,2 53165  53.2176 145.1758 0001549  74.0271 286.0892 15.08838305 93678,6917.886,95.438,540.822,538.679,0.0
53165.0,STARLINK-4090,PAYLOAD,2024-03-22 10:32:20,15.0884877,0.0001477,53.2173,143.984,90.5811,269.535,0.00014162,1.967e-05,0.0,0 STARLINK-4090,1 53165U 22083AK  24082.43912105  .00001967  00000-0  14162-3 0  9996,2 53165  53.2173 143.9840 0001477  90.5811 269.5350 15.08848770 93713,6917.854,95.437,540.74,538.697,0.0
53165.0,STARLINK-4090,PAYLOAD,2024-03-23 10:23:08,15.08830899,0.0001504,53.217,139.5237,125.9945,234.1187,-3.9666e-05,-9.19e-06,0.0,0 STARLINK-4090,1 53165U 22083AK  24083.43273625 -.00000919  00000-0 -39666-4 0  9999,2 53165  53.2170 139.5237 0001504 125.9945 234.1187 15.08830899 93868,6917.908,95.438,540.814,538.733,0.0
53165.0,STARLINK-4090,PAYLOAD,2024-03-23 13:33:54,15.08830173,0.0001424,53.2168,138.9287,123.0933,237.0196,-4.4752e-05,-1e-05,0.0,0 STARLINK-4090,1 53165U 22083AK  24083.56521733 -.00001000  00000-0 -44752-4 0  9993,2 53165  53.2168 138.9287 0001424 123.0933 237.0196 15.08830173 93250,6917.91,95.438,540.761,538.79,0.0
53165.0,STARLINK-4090,PAYLOAD,2024-03-24 10:13:53,15.08859328,0.0001662,53.2176,135.0617,115.6187,244.4977,0.00012125,1.643e-05,0.0,0 STARLINK-4090,1 53165U 22083AK  24084.42631683  .00001643  00000-0  12125-3 0  9994,2 53165  53.2176 135.0617 0001662 115.6187 244.4977 15.08859328 94013,6917.821,95.436,540.836,538.537,0.0
53165.0,STARLINK-4090,PAYLOAD,2024-03-25 03:43:09,15.08838816,0.0001549,53.2171,131.7877,118.6442,241.4706,0.00030913,4.635e-05,0.0,0 STARLINK-4090,1 53165U 22083AK  24085.15496703  .00004635  00000-0  30913-3 0  9996,2 53165  53.2171 131.7877 0001549 118.6442 241.4706 15.08838816 94128,6917.884,95.438,540.821,538.677,0.0
53165.0,STARLINK-4090,PAYLOAD,2024-03-25 10:04:42,15.08826556,0.0001187,53.2154,130.6018,92.4424,267.6704,5.6782e-05,6.16e-06,0.0,0 STARLINK-4090,1 53165U 22083AK  24085.41993917  .00000616  00000-0  56782-4 0  9992,2 53165  53.2154 130.6018 0001187  92.4424 267.6704 15.08826556 94161,6917.921,95.438,540.608,538.965,0.0
53165.0,STARLINK-4090,PAYLOAD,2024-03-25 19:37:01,15.08838848,0.0001317,53.2175,128.8184,104.7695,255.3444,0.00013587,1.875e-05,0.0,0 STARLINK-4090,1 53165U 22083AK  24085.81737673  .00001875  00000-0  13587-3 0  9994,2 53165  53.2175 128.8184 0001317 104.7695 255.3444 15.08838848 94228,6917.884,95.438,540.66,538.838,0.0
53165.0,STARLINK-4090,PAYLOAD,2024-03-26 09:55:31,15.08825008,0.0001669,53.2177,126.1448,110.7363,249.3808,-0.00017487,-3.069e-05,0.0,0 STARLINK-4090,1 53165U 22083AK  24086.41355740 -.00003069  00000-0 -17487-3 0  9994,2 53165  53.2177 126.1448 0001669 110.7363 249.3808 15.08825008 94314,6917.926,95.439,540.946,538.637,0.0
53165.0,STARLINK-4090,PAYLOAD,2024-03-26 13:06:17,15.08820988,0.0001589,53.2164,125.5485,104.3638,255.7531,-0.00027762,-4.701e-05,0.0,0 STARLINK-4090,1 53165U 22083AK  24086.54603047 -.00004701  00000-0 -27762-3 0  9995,2 53165  53.2164 125.5485 0001589 104.3638 255.7531 15.08820988 93707,6917.939,95.439,540.903,538.704,0.0
53165.0,STARLINK-4090,PAYLOAD,2024-03-26 19:27:49,15.08825498,0.0001589,53.217,124.3595,100.2456,259.8715,-0.00016097,-2.848e-05,0.0,0 STARLINK-4090,1 53165U 22083AK  24086.81099107 -.00002848  00000-0 -16097-3 0  9990,2 53165  53.2170 124.3595 0001589 100.2456 259.8715 15.08825498 94370,6917.925,95.438,540.889,538.69,0.0
53165.0,STARLINK-4090,PAYLOAD,2024-03-27 09:46:15,15.08858907,0.000126,53.2166,121.6807,79.9247,280.1887,0.00042185,6.436e-05,0.0,0 STARLINK-4090,1 53165U 22083AK  24087.40712641  .00006436  00000-0  42185-3 0  9993,2 53165  53.2166 121.6807 0001260  79.9247 280.1887 15.08858907 94465,6917.823,95.436,540.559,538.816,0.0
53165.0,STARLINK-4090,PAYLOAD,2024-03-27 19:18:33,15.08873653,0.0001352,53.2176,119.8955,78.2875,281.8269,0.00039547,6.017e-05,0.0,0 STARLINK-4090,1 53165U 22083AK  24087.80455056  .00006017  00000-0  39547-3 0  9994,2 53165  53.2176 119.8955 0001352  78.2875 281.8269 15.08873653 94524,6917.778,95.435,540.578,538.707,0.0
53165.0,STARLINK-4090,PAYLOAD,2024-03-28 11:12:27,15.08838101,0.0001574,53.2159,116.9234,92.0059,268.1113,0.00012052,1.63e-05,0.0,0 STARLINK-4090,1 53165U 22083AK  24088.46698228  .00001630  00000-0  12052-3 0  9995,2 53165  53.2159 116.9234 0001574  92.0059 268.1113 15.08838101 94623,6917.886,95.438,540.84,538.662,0.0
53165.0,STARLINK-4090,PAYLOAD,2024-03-28 19:09:25,15.08795032,0.0001437,53.2157,115.4374,79.2895,280.8259,-0.00052877,-8.683e-05,0.0,0 STARLINK-4090,1 53165U 22083AK  24088.79820979 -.00008683  00000-0 -52877-3 0  9997,2 53165  53.2157 115.4374 0001437  79.2895 280.8259 15.08795032 94675,6918.018,95.44,540.877,538.889,0.0
53165.0,STARLINK-4090,PAYLOAD,2024-03-29 01:30:57,15.08797741,4.53e-05,53.2182,114.2433,232.1918,127.9033,-0.0005407,-8.872e-05,0.0,0 STARLINK-4090,1 53165U 22083AK  24089.06316608 -.00008872  00000-0 -54070-3 0  9994,2 53165  53.2182 114.2433 0000453 232.1918 127.9033 15.08797741 94714,6918.01,95.44,540.188,539.561,0.0
53165.0,STARLINK-4090,PAYLOAD,2024-03-29 11:03:15,15.08842476,0.000184,53.2163,112.4615,79.207,280.9129,-0.00016805,-2.962e-05,0.0,0 STARLINK-4090,1 53165U 22083AK  24089.46059046 -.00002962  00000-0 -16805-3 0  9996,2 53165  53.2163 112.4615 0001840  79.2070 280.9129 15.08842476 94773,6917.873,95.437,541.011,538.465,0.0
53165.0,STARLINK-4090,PAYLOAD,2024-03-29 19:00:10,15.08849327,0.0001939,53.2168,110.9759,78.8321,281.2889,3.2088e-05,2.23e-06,0.0,0 STARLINK-4090,1 53165U 22083AK  24089.79178917  .00000223  00000-0  32088-4 0  9999,2 53165  53.2168 110.9759 0001939  78.8321 281.2889 15.08849327 94198,6917.852,95.437,541.058,538.376,0.0
53165.0,STARLINK-4090,PAYLOAD,2024-03-30 10:54:02,15.08863791,0.0002137,53.2158,108.0021,76.4613,283.6618,0.00099179,0.00015542,0.0,0 STARLINK-4090,1 53165U 22083AK  24090.45419345  .00015542  00000-0  99179-3 0  9990,2 53165  53.2158 108.0021 0002137  76.4613 283.6618 15.08863791 94924,6917.808,95.436,541.151,538.194,0.0
